{
  "norad_id": 53649,
  "name": "STARLINK-4386",
  "history": [
    {
      "epoch": "2026-03-28T22:50:41.091936Z",
      "apogee_km": 535.4332826137852,
      "perigee_km": 531.7576232953033,
      "latitude_deg": 6.590124174436065e-05,
      "longitude_deg": 161.28973845210803,
      "height_km": 536.8709030509508,
      "semi_major_axis_km": 6911.732452954544,
      "eccentricity": 0.0002659,
      "inclination_deg": 97.6031,
      "raan_deg": 330.3259,
      "arg_perigee_deg": 96.4859,
      "mean_anomaly_deg": 263.6674,
      "mean_motion_rev_day": 15.10853601
    },
    {
      "epoch": "2026-03-29T05:12:23.143392Z",
      "apogee_km": 536.9894152688767,
      "perigee_km": 531.191438903038,
      "latitude_deg": 2.0120542781805142e-05,
      "longitude_deg": 65.86616526777208,
      "height_km": 537.0679956000574,
      "semi_major_axis_km": 6912.227427085957,
      "eccentricity": 0.0004194,
      "inclination_deg": 97.6027,
      "raan_deg": 330.5888,
      "arg_perigee_deg": 88.2805,
      "mean_anomaly_deg": 271.8905,
      "mean_motion_rev_day": 15.10691319
    },
    {
      "epoch": "2026-03-30T03:27:55.740960Z",
      "apogee_km": 535.8628118350953,
      "perigee_km": 533.2664011117049,
      "latitude_deg": -2.6123520868881372e-05,
      "longitude_deg": 91.98710187068914,
      "height_km": 538.3662697285778,
      "semi_major_axis_km": 6912.7016064734,
      "eccentricity": 0.0001878,
      "inclination_deg": 97.6041,
      "raan_deg": 331.5097,
      "arg_perigee_deg": 124.3341,
      "mean_anomaly_deg": 235.8066,
      "mean_motion_rev_day": 15.10535882
    },
    {
      "epoch": "2026-03-30T05:03:19.683072Z",
      "apogee_km": 536.0338204137552,
      "perigee_km": 533.1177616499863,
      "latitude_deg": -4.467475777970452e-06,
      "longitude_deg": 68.13754195260468,
      "height_km": 537.6589985903479,
      "semi_major_axis_km": 6912.71279103187,
      "eccentricity": 0.00021092,
      "inclination_deg": 97.6031,
      "raan_deg": 331.5752,
      "arg_perigee_deg": 90.5839,
      "mean_anomaly_deg": 269.5632,
      "mean_motion_rev_day": 15.10532216
    },
    {
      "epoch": "2026-03-30T13:00:18.349920Z",
      "apogee_km": 536.1846793820332,
      "perigee_km": 533.1383473331662,
      "latitude_deg": -3.732371340320671e-05,
      "longitude_deg": -51.104378192948715,
      "height_km": 537.6404404058502,
      "semi_major_axis_km": 6912.798513357599,
      "eccentricity": 0.00022034,
      "inclination_deg": 97.603,
      "raan_deg": 331.9042,
      "arg_perigee_deg": 86.6424,
      "mean_anomaly_deg": 273.5057,
      "mean_motion_rev_day": 15.10504119
    },
    {
      "epoch": "2026-03-30T22:32:42.430272Z",
      "apogee_km": 536.2852756009543,
      "perigee_km": 533.4286882277484,
      "latitude_deg": 2.9855021192728867e-06,
      "longitude_deg": 165.7982873205691,
      "height_km": 537.968169866412,
      "semi_major_axis_km": 6912.993981914351,
      "eccentricity": 0.00020661,
      "inclination_deg": 97.6029,
      "raan_deg": 332.299,
      "arg_perigee_deg": 91.7202,
      "mean_anomaly_deg": 268.4264,
      "mean_motion_rev_day": 15.10440054
    },
    {
      "epoch": "2026-03-31T09:40:34.091040Z",
      "apogee_km": 536.7895977261551,
      "perigee_km": 533.6689042004691,
      "latitude_deg": 4.348411317035387e-05,
      "longitude_deg": -1.1638052392247704,
      "height_km": 538.2232898895761,
      "semi_major_axis_km": 6913.366250963311,
      "eccentricity": 0.0002257,
      "inclination_deg": 97.603,
      "raan_deg": 332.7593,
      "arg_perigee_deg": 87.2914,
      "mean_anomaly_deg": 272.8574,
      "mean_motion_rev_day": 15.10318055
    },
    {
      "epoch": "2026-04-01T09:31:41.962944Z",
      "apogee_km": 536.7965811635195,
      "perigee_km": 534.0477500392763,
      "latitude_deg": 6.334517339541239e-06,
      "longitude_deg": 1.0603269221691864,
      "height_km": 538.528939141128,
      "semi_major_axis_km": 6913.559165601398,
      "eccentricity": 0.0001988,
      "inclination_deg": 97.6026,
      "raan_deg": 333.7458,
      "arg_perigee_deg": 91.608,
      "mean_anomaly_deg": 268.5377,
      "mean_motion_rev_day": 15.1025484
    },
    {
      "epoch": "2026-04-02T15:44:26.513088Z",
      "apogee_km": 536.7464498686977,
      "perigee_km": 534.0364849800371,
      "latitude_deg": 2.0436953569479714e-05,
      "longitude_deg": -92.11697750216429,
      "height_km": 538.4518049652529,
      "semi_major_axis_km": 6913.528467424368,
      "eccentricity": 0.00019599,
      "inclination_deg": 97.6026,
      "raan_deg": 334.9949,
      "arg_perigee_deg": 89.6652,
      "mean_anomaly_deg": 270.4802,
      "mean_motion_rev_day": 15.10264899
    },
    {
      "epoch": "2026-04-02T22:06:04.013856Z",
      "apogee_km": 536.7344517764977,
      "perigee_km": 534.015920514662,
      "latitude_deg": 5.285001842694292e-05,
      "longitude_deg": 172.47855214101733,
      "height_km": 538.4185553771564,
      "semi_major_axis_km": 6913.51218614558,
      "eccentricity": 0.00019661,
      "inclination_deg": 97.6024,
      "raan_deg": 335.2579,
      "arg_perigee_deg": 88.9512,
      "mean_anomaly_deg": 271.1943,
      "mean_motion_rev_day": 15.10270234
    },
    {
      "epoch": "2026-04-03T15:35:24.785952Z",
      "apogee_km": 536.3262188377512,
      "perigee_km": 533.8706376136461,
      "latitude_deg": -8.130569154399022e-06,
      "longitude_deg": -89.85354211088226,
      "height_km": 538.0677392055352,
      "semi_major_axis_km": 6913.235428225698,
      "eccentricity": 0.0001776,
      "inclination_deg": 97.6038,
      "raan_deg": 335.9806,
      "arg_perigee_deg": 85.3585,
      "mean_anomaly_deg": 274.7847,
      "mean_motion_rev_day": 15.10360926
    },
    {
      "epoch": "2026-04-04T05:53:54.679200Z",
      "apogee_km": 536.4789231081149,
      "perigee_km": 533.1909753896134,
      "latitude_deg": -5.202976216396323e-05,
      "longitude_deg": 55.526987104916905,
      "height_km": 537.614585978761,
      "semi_major_axis_km": 6912.971949248864,
      "eccentricity": 0.00023781,
      "inclination_deg": 97.6032,
      "raan_deg": 336.5733,
      "arg_perigee_deg": 79.9063,
      "mean_anomaly_deg": 280.2434,
      "mean_motion_rev_day": 15.10447275
    },
    {
      "epoch": "2026-04-05T13:41:30.825888Z",
      "apogee_km": 535.8160162180047,
      "perigee_km": 532.5080663887984,
      "latitude_deg": 5.447490586085479e-05,
      "longitude_deg": -61.36364744837623,
      "height_km": 537.173763607257,
      "semi_major_axis_km": 6912.299041303401,
      "eccentricity": 0.00023928,
      "inclination_deg": 97.6018,
      "raan_deg": 337.889,
      "arg_perigee_deg": 88.0487,
      "mean_anomaly_deg": 272.1017,
      "mean_motion_rev_day": 15.10667842
    },
    {
      "epoch": "2026-04-05T15:16:53.006304Z",
      "apogee_km": 535.6763159724396,
      "perigee_km": 532.5616534257342,
      "latitude_deg": 7.973272541008648e-06,
      "longitude_deg": -85.20573801686645,
      "height_km": 537.0754915688054,
      "semi_major_axis_km": 6912.255984699086,
      "eccentricity": 0.0002253,
      "inclination_deg": 97.6013,
      "raan_deg": 337.9546,
      "arg_perigee_deg": 85.8824,
      "mean_anomaly_deg": 274.2663,
      "mean_motion_rev_day": 15.10681957
    },
    {
      "epoch": "2026-04-06T05:35:11.194080Z",
      "apogee_km": 535.3925469817577,
      "perigee_km": 532.100969698361,
      "latitude_deg": 4.835157211715744e-05,
      "longitude_deg": 60.22108538028967,
      "height_km": 537.2338211467796,
      "semi_major_axis_km": 6911.883758340059,
      "eccentricity": 0.00023811,
      "inclination_deg": 97.6,
      "raan_deg": 338.5447,
      "arg_perigee_deg": 104.732,
      "mean_anomaly_deg": 255.4174,
      "mean_motion_rev_day": 15.10803991
    },
    {
      "epoch": "2026-04-07T10:11:22.053120Z",
      "apogee_km": 534.4098513998197,
      "perigee_km": 530.8112869256056,
      "latitude_deg": 7.5374316215989915e-06,
      "longitude_deg": -8.810642495673372,
      "height_km": 535.6277460480624,
      "semi_major_axis_km": 6910.747569162712,
      "eccentricity": 0.00026036,
      "inclination_deg": 97.6022,
      "raan_deg": 339.7329,
      "arg_perigee_deg": 88.3705,
      "mean_anomaly_deg": 271.7823,
      "mean_motion_rev_day": 15.11176591
    },
    {
      "epoch": "2026-04-07T20:00:00.999360Z",
      "apogee_km": 532.1947049803994,
      "perigee_km": 528.4682770763384,
      "latitude_deg": 61.80412802250054,
      "longitude_deg": -170.30625158401443,
      "height_km": 539.1168413510645,
      "semi_major_axis_km": 6908.468491028369,
      "eccentricity": 0.0002697,
      "inclination_deg": 97.6008,
      "raan_deg": 340.1349,
      "arg_perigee_deg": 75.0824,
      "mean_anomaly_deg": 347.5893,
      "mean_motion_rev_day": 15.1192445
    },
    {
      "epoch": "2026-04-08T16:00:01.999584Z",
      "apogee_km": 530.7258280418819,
      "perigee_km": 527.9986092003865,
      "latitude_deg": -80.4039375986212,
      "longitude_deg": -44.22427520366334,
      "height_km": 558.5900168259008,
      "semi_major_axis_km": 6907.499218621134,
      "eccentricity": 0.00019741,
      "inclination_deg": 97.6032,
      "raan_deg": 340.9685,
      "arg_perigee_deg": 58.4829,
      "mean_anomaly_deg": 217.5056,
      "mean_motion_rev_day": 15.12242695
    },
    {
      "epoch": "2026-04-09T20:00:01.999008Z",
      "apogee_km": 530.0341574999566,
      "perigee_km": 527.1112379558772,
      "latitude_deg": 35.81555655227893,
      "longitude_deg": 29.54334389139651,
      "height_km": 533.036168635153,
      "semi_major_axis_km": 6906.709697727916,
      "eccentricity": 0.0002116,
      "inclination_deg": 97.6034,
      "raan_deg": 342.1301,
      "arg_perigee_deg": 72.0118,
      "mean_anomaly_deg": 71.8588,
      "mean_motion_rev_day": 15.12502004
    }
  ]
}